start=new Date('2021-10-06T00:00:00.000Z').valueOf();
sats=[{"GP_ID":"186278163","SEMIMAJOR_AXIS":"6925.350","REF_FRAME":"TEME","MEAN_ANOMALY":"286.0346","CENTER_NAME":"EARTH","APOAPSIS":"548.065","TLE_LINE1":"1 48479U 21040BD  21278.19341321  .00001630  00000-0  12828-3 0  9997","PERIAPSIS":"546.364","EPHEMERIS_TYPE":"0","PERIOD":"95.592","OBJECT_TYPE":"PAYLOAD","NORAD_CAT_ID":"48479","TIME_SYSTEM":"UTC","RA_OF_ASC_NODE":"248.3468","CLASSIFICATION_TYPE":"U","MEAN_MOTION":"15.06399601","ELEMENT_SET_NO":"999","DECAY_DATE":null,"MEAN_MOTION_DDOT":"0.0000000000000","OBJECT_ID":"2021-040BD","INCLINATION":"53.0557","OBJECT_NAME":"STARLINK-2755","ARG_OF_PERICENTER":"74.0778","SITE":"AFETR","MEAN_ELEMENT_THEORY":"SGP4","REV_AT_EPOCH":"2284","RCS_SIZE":"LARGE","FILE":"3145988","LAUNCH_DATE":"2021-05-09","TLE_LINE2":"2 48479  53.0557 248.3468 0001228  74.0778 286.0346 15.06399601 22845","BSTAR":"0.00012828000000","ECCENTRICITY":"0.00012280","MEAN_MOTION_DOT":"0.00001630","EPOCH":"2021-10-05T04:38:30.901344","COUNTRY_CODE":"US"},{"PERIOD":"95.593","EPHEMERIS_TYPE":"0","REF_FRAME":"TEME","MEAN_ANOMALY":"297.0523","SEMIMAJOR_AXIS":"6925.379","GP_ID":"186278390","PERIAPSIS":"546.467","CENTER_NAME":"EARTH","APOAPSIS":"548.022","TLE_LINE1":"1 48480U 21040BE  21278.33994165  .00000432  00000-0  47912-4 0  9997","ELEMENT_SET_NO":"999","DECAY_DATE":null,"MEAN_MOTION_DDOT":"0.0000000000000","NORAD_CAT_ID":"48480","TIME_SYSTEM":"UTC","OBJECT_TYPE":"PAYLOAD","MEAN_MOTION":"15.06389947","RA_OF_ASC_NODE":"257.6808","CLASSIFICATION_TYPE":"U","OBJECT_NAME":"STARLINK-2690","ARG_OF_PERICENTER":"63.0580","SITE":"AFETR","OBJECT_ID":"2021-040BE","INCLINATION":"53.0548","BSTAR":"0.00004791200000","EPOCH":"2021-10-05T08:09:30.958560","COUNTRY_CODE":"US","ECCENTRICITY":"0.00011230","MEAN_MOTION_DOT":"0.00000432","RCS_SIZE":"LARGE","REV_AT_EPOCH":"2272","MEAN_ELEMENT_THEORY":"SGP4","TLE_LINE2":"2 48480  53.0548 257.6808 0001123  63.0580 297.0523 15.06389947 22729","LAUNCH_DATE":"2021-05-09","FILE":"3145988"},{"FILE":"3145988","LAUNCH_DATE":"2021-05-09","TLE_LINE2":"2 48481  53.0538 258.2148 0000979  50.2311 309.8764 15.06400211 22706","MEAN_ELEMENT_THEORY":"SGP4","RCS_SIZE":"LARGE","REV_AT_EPOCH":"2270","ECCENTRICITY":"0.00009790","MEAN_MOTION_DOT":"-0.00000176","EPOCH":"2021-10-05T05:18:17.774784","COUNTRY_CODE":"US","BSTAR":"0.00000708830000","OBJECT_ID":"2021-040BF","INCLINATION":"53.0538","ARG_OF_PERICENTER":"50.2311","SITE":"AFETR","OBJECT_NAME":"STARLINK-2706","CLASSIFICATION_TYPE":"U","RA_OF_ASC_NODE":"258.2148","MEAN_MOTION":"15.06400211","OBJECT_TYPE":"PAYLOAD","NORAD_CAT_ID":"48481","TIME_SYSTEM":"UTC","MEAN_MOTION_DDOT":"0.0000000000000","ELEMENT_SET_NO":"999","DECAY_DATE":null,"APOAPSIS":"547.891","CENTER_NAME":"EARTH","TLE_LINE1":"1 48481U 21040BF  21278.22103906 -.00000176  00000-0  70883-5 0  9991","PERIAPSIS":"546.535","GP_ID":"186278607","SEMIMAJOR_AXIS":"6925.348","REF_FRAME":"TEME","MEAN_ANOMALY":"309.8764","EPHEMERIS_TYPE":"0","PERIOD":"95.592"},{"SITE":"AFETR","ARG_OF_PERICENTER":"65.9917","OBJECT_NAME":"STARLINK-2525","INCLINATION":"53.0553","OBJECT_ID":"2021-040BG","COUNTRY_CODE":"US","EPOCH":"2021-10-05T08:20:07.912320","MEAN_MOTION_DOT":"-0.00000023","ECCENTRICITY":"0.00010390","BSTAR":"0.00001731400000","LAUNCH_DATE":"2021-05-09","TLE_LINE2":"2 48482  53.0553 257.6529 0001039  65.9917 294.1181 15.06395869 22726","FILE":"3145988","RCS_SIZE":"LARGE","REV_AT_EPOCH":"2272","MEAN_ELEMENT_THEORY":"SGP4","PERIOD":"95.592","EPHEMERIS_TYPE":"0","PERIAPSIS":"546.507","TLE_LINE1":"1 48482U 21040BG  21278.34731380 -.00000023  00000-0  17314-4 0  9998","APOAPSIS":"547.946","CENTER_NAME":"EARTH","MEAN_ANOMALY":"294.1181","REF_FRAME":"TEME","SEMIMAJOR_AXIS":"6925.361","GP_ID":"186278282","MEAN_MOTION_DDOT":"0.0000000000000","DECAY_DATE":null,"ELEMENT_SET_NO":"999","MEAN_MOTION":"15.06395869","CLASSIFICATION_TYPE":"U","RA_OF_ASC_NODE":"257.6529","TIME_SYSTEM":"UTC","NORAD_CAT_ID":"48482","OBJECT_TYPE":"PAYLOAD"},{"OBJECT_NAME":"STARLINK-2531","SITE":"AFETR","ARG_OF_PERICENTER":"75.9996","INCLINATION":"53.0550","OBJECT_ID":"2021-040BH","BSTAR":"0.00000927150000","COUNTRY_CODE":"US","EPOCH":"2021-10-05T08:14:48.563232","MEAN_MOTION_DOT":"-0.00000143","ECCENTRICITY":"0.00011000","REV_AT_EPOCH":"2272","RCS_SIZE":"LARGE","MEAN_ELEMENT_THEORY":"SGP4","LAUNCH_DATE":"2021-05-09","TLE_LINE2":"2 48483  53.0550 257.6667 0001100  75.9996 284.1115 15.06401594 22723","FILE":"3145988","PERIOD":"95.592","EPHEMERIS_TYPE":"0","MEAN_ANOMALY":"284.1115","REF_FRAME":"TEME","GP_ID":"186278498","SEMIMAJOR_AXIS":"6925.344","PERIAPSIS":"546.447","TLE_LINE1":"1 48483U 21040BH  21278.34361763 -.00000143  00000-0  92715-5 0  9995","APOAPSIS":"547.970","CENTER_NAME":"EARTH","ELEMENT_SET_NO":"999","DECAY_DATE":null,"MEAN_MOTION_DDOT":"0.0000000000000","TIME_SYSTEM":"UTC","NORAD_CAT_ID":"48483","OBJECT_TYPE":"PAYLOAD","MEAN_MOTION":"15.06401594","CLASSIFICATION_TYPE":"U","RA_OF_ASC_NODE":"257.6667"},{"MEAN_MOTION_DOT":"-0.00000131","ECCENTRICITY":"0.00012830","COUNTRY_CODE":"US","EPOCH":"2021-10-05T06:06:04.788576","BSTAR":"0.00001008700000","FILE":"3145988","LAUNCH_DATE":"2021-05-09","TLE_LINE2":"2 48484  53.0547 258.0646 0001283  65.4337 294.6786 15.06386344 22711","MEAN_ELEMENT_THEORY":"SGP4","REV_AT_EPOCH":"2271","RCS_SIZE":"LARGE","SITE":"AFETR","ARG_OF_PERICENTER":"65.4337","OBJECT_NAME":"STARLINK-2696","INCLINATION":"53.0547","OBJECT_ID":"2021-040BJ","MEAN_MOTION_DDOT":"0.0000000000000","ELEMENT_SET_NO":"999","DECAY_DATE":null,"CLASSIFICATION_TYPE":"U","RA_OF_ASC_NODE":"258.0646","MEAN_MOTION":"15.06386344","OBJECT_TYPE":"PAYLOAD","TIME_SYSTEM":"UTC","NORAD_CAT_ID":"48484","EPHEMERIS_TYPE":"0","PERIOD":"95.593","TLE_LINE1":"1 48484U 21040BJ  21278.25422209 -.00000131  00000-0  10087-4 0  9997","APOAPSIS":"548.144","CENTER_NAME":"EARTH","PERIAPSIS":"546.367","SEMIMAJOR_AXIS":"6925.390","GP_ID":"186278056","MEAN_ANOMALY":"294.6786","REF_FRAME":"TEME"},{"APOAPSIS":"547.983","CENTER_NAME":"EARTH","TLE_LINE1":"1 48485U 21040BK  21278.35099056  .00002171  00000-0  16457-3 0  9990","PERIAPSIS":"546.458","GP_ID":"186278702","SEMIMAJOR_AXIS":"6925.355","REF_FRAME":"TEME","MEAN_ANOMALY":"283.9389","EPHEMERIS_TYPE":"0","PERIOD":"95.592","CLASSIFICATION_TYPE":"U","RA_OF_ASC_NODE":"257.6374","MEAN_MOTION":"15.06397852","OBJECT_TYPE":"PAYLOAD","NORAD_CAT_ID":"48485","TIME_SYSTEM":"UTC","MEAN_MOTION_DDOT":"0.0000000000000","DECAY_DATE":null,"ELEMENT_SET_NO":"999","OBJECT_ID":"2021-040BK","INCLINATION":"53.0547","ARG_OF_PERICENTER":"76.1722","SITE":"AFETR","OBJECT_NAME":"STARLINK-2500","FILE":"3145988","TLE_LINE2":"2 48485  53.0547 257.6374 0001101  76.1722 283.9389 15.06397852 22728","LAUNCH_DATE":"2021-05-09","MEAN_ELEMENT_THEORY":"SGP4","RCS_SIZE":"LARGE","REV_AT_EPOCH":"2272","ECCENTRICITY":"0.00011010","MEAN_MOTION_DOT":"0.00002171","EPOCH":"2021-10-05T08:25:25.584384","COUNTRY_CODE":"US","BSTAR":"0.00016457000000"},{"EPHEMERIS_TYPE":"0","PERIOD":"95.592","SEMIMAJOR_AXIS":"6925.348","GP_ID":"186277949","REF_FRAME":"TEME","MEAN_ANOMALY":"288.4713","CENTER_NAME":"EARTH","APOAPSIS":"548.293","TLE_LINE1":"1 48486U 21040BL  21278.35467428  .00001599  00000-0  12621-3 0  9995","PERIAPSIS":"546.133","DECAY_DATE":null,"ELEMENT_SET_NO":"999","MEAN_MOTION_DDOT":"0.0000000000000","OBJECT_TYPE":"PAYLOAD","NORAD_CAT_ID":"48486","TIME_SYSTEM":"UTC","RA_OF_ASC_NODE":"257.6197","CLASSIFICATION_TYPE":"U","MEAN_MOTION":"15.06400229","OBJECT_NAME":"STARLINK-2496","ARG_OF_PERICENTER":"71.6446","SITE":"AFETR","OBJECT_ID":"2021-040BL","INCLINATION":"53.0532","BSTAR":"0.00012621000000","ECCENTRICITY":"0.00015590","MEAN_MOTION_DOT":"0.00001599","EPOCH":"2021-10-05T08:30:43.857792","COUNTRY_CODE":"US","MEAN_ELEMENT_THEORY":"SGP4","REV_AT_EPOCH":"2272","RCS_SIZE":"LARGE","FILE":"3145988","TLE_LINE2":"2 48486  53.0532 257.6197 0001559  71.6446 288.4713 15.06400229 22720","LAUNCH_DATE":"2021-05-09"},{"OBJECT_TYPE":"PAYLOAD","TIME_SYSTEM":"UTC","NORAD_CAT_ID":"48487","RA_OF_ASC_NODE":"257.6086","CLASSIFICATION_TYPE":"U","MEAN_MOTION":"15.06398574","DECAY_DATE":null,"ELEMENT_SET_NO":"999","MEAN_MOTION_DDOT":"0.0000000000000","SEMIMAJOR_AXIS":"6925.353","GP_ID":"186278164","MEAN_ANOMALY":"280.1656","REF_FRAME":"TEME","TLE_LINE1":"1 48487U 21040BM  21278.35836868  .00000160  00000-0  29599-4 0  9990","APOAPSIS":"548.040","CENTER_NAME":"EARTH","PERIAPSIS":"546.396","EPHEMERIS_TYPE":"0","PERIOD":"95.592","MEAN_ELEMENT_THEORY":"SGP4","REV_AT_EPOCH":"2273","RCS_SIZE":"LARGE","FILE":"3145988","TLE_LINE2":"2 48487  53.0560 257.6086 0001187  79.9467 280.1656 15.06398574 22735","LAUNCH_DATE":"2021-05-09","BSTAR":"0.00002959900000","MEAN_MOTION_DOT":"0.00000160","ECCENTRICITY":"0.00011870","COUNTRY_CODE":"US","EPOCH":"2021-10-05T08:36:03.053952","INCLINATION":"53.0560","OBJECT_ID":"2021-040BM","OBJECT_NAME":"STARLINK-2494","SITE":"AFETR","ARG_OF_PERICENTER":"79.9467"},{"OBJECT_NAME":"STARLINK-2063","ARG_OF_PERICENTER":"58.4058","SITE":"AFETR","OBJECT_ID":"2021-041A","INCLINATION":"53.0601","BSTAR":"0.00006170400000","ECCENTRICITY":"0.00017340","MEAN_MOTION_DOT":"0.00000637","EPOCH":"2021-10-05T03:16:15.760128","COUNTRY_CODE":"US","MEAN_ELEMENT_THEORY":"SGP4","RCS_SIZE":"LARGE","REV_AT_EPOCH":"2155","FILE":"3145988","TLE_LINE2":"2 48553  53.0601 188.5950 0001734  58.4058 301.7100 15.06393590 21559","LAUNCH_DATE":"2021-05-15","EPHEMERIS_TYPE":"0","PERIOD":"95.593","SEMIMAJOR_AXIS":"6925.368","GP_ID":"186278710","REF_FRAME":"TEME","MEAN_ANOMALY":"301.7100","APOAPSIS":"548.434","CENTER_NAME":"EARTH","TLE_LINE1":"1 48553U 21041A   21278.13629352  .00000637  00000-0  61704-4 0  9992","PERIAPSIS":"546.032","ELEMENT_SET_NO":"999","DECAY_DATE":null,"MEAN_MOTION_DDOT":"0.0000000000000","OBJECT_TYPE":"PAYLOAD","NORAD_CAT_ID":"48553","TIME_SYSTEM":"UTC","CLASSIFICATION_TYPE":"U","RA_OF_ASC_NODE":"188.5950","MEAN_MOTION":"15.06393590"}];
